{
  "countries": [
    { "id": 1, "name": "Afganistán", "phoneCode": "+93" },
    { "id": 2, "name": "Albania", "phoneCode": "+355" },
    { "id": 3, "name": "Alemania", "phoneCode": "+49" },
    { "id": 4, "name": "Andorra", "phoneCode": "+376" },
    { "id": 5, "name": "Angola", "phoneCode": "+244" },
    { "id": 6, "name": "Antigua y Barbuda", "phoneCode": "+1268" },
    { "id": 7, "name": "Arabia Saudita", "phoneCode": "+966" },
    { "id": 8, "name": "Argelia", "phoneCode": "+213" },
    { "id": 9, "name": "Argentina", "phoneCode": "+54" },
    { "id": 10, "name": "Armenia", "phoneCode": "+374" },
    { "id": 11, "name": "Australia", "phoneCode": "+61" },
    { "id": 12, "name": "Austria", "phoneCode": "+43" },
    { "id": 13, "name": "Azerbaiyán", "phoneCode": "+994" },
    { "id": 14, "name": "Bahamas", "phoneCode": "+1242" },
    { "id": 15, "name": "Bangladés", "phoneCode": "+880" },
    { "id": 16, "name": "Barbados", "phoneCode": "+1246" },
    { "id": 17, "name": "Baréin", "phoneCode": "+973" },
    { "id": 18, "name": "Bélgica", "phoneCode": "+32" },
    { "id": 19, "name": "Belice", "phoneCode": "+501" },
    { "id": 20, "name": "Benín", "phoneCode": "+229" },
    { "id": 21, "name": "Bielorrusia", "phoneCode": "+375" },
    { "id": 22, "name": "Birmania", "phoneCode": "+95" },
    { "id": 23, "name": "Bolivia", "phoneCode": "+591" },
    { "id": 24, "name": "Bosnia y Herzegovina", "phoneCode": "+387" },
    { "id": 25, "name": "Botsuana", "phoneCode": "+267" },
    { "id": 26, "name": "Brasil", "phoneCode": "+55" },
    { "id": 27, "name": "Brunéi", "phoneCode": "+673" },
    { "id": 28, "name": "Bulgaria", "phoneCode": "+359" },
    { "id": 29, "name": "Burkina Faso", "phoneCode": "+226" },
    { "id": 30, "name": "Burundi", "phoneCode": "+257" },
    { "id": 31, "name": "Bután", "phoneCode": "+975" },
    { "id": 32, "name": "Cabo Verde", "phoneCode": "+238" },
    { "id": 33, "name": "Camboya", "phoneCode": "+855" },
    { "id": 34, "name": "Camerún", "phoneCode": "+237" },
    { "id": 35, "name": "Canadá", "phoneCode": "+1" },
    { "id": 36, "name": "Catar", "phoneCode": "+974" },
    { "id": 37, "name": "Chad", "phoneCode": "+235" },
    { "id": 38, "name": "Chile", "phoneCode": "+56" },
    { "id": 39, "name": "China", "phoneCode": "+86" },
    { "id": 40, "name": "Chipre", "phoneCode": "+357" },
    { "id": 41, "name": "Ciudad del Vaticano", "phoneCode": "+379" },
    { "id": 42, "name": "Colombia", "phoneCode": "+57" },
    { "id": 43, "name": "Comoras", "phoneCode": "+269" },
    { "id": 44, "name": "Corea del Norte", "phoneCode": "+850" },
    { "id": 45, "name": "Corea del Sur", "phoneCode": "+82" },
    { "id": 46, "name": "Costa de Marfil", "phoneCode": "+225" },
    { "id": 47, "name": "Costa Rica", "phoneCode": "+506" },
    { "id": 48, "name": "Croacia", "phoneCode": "+385" },
    { "id": 49, "name": "Cuba", "phoneCode": "+53" },
    { "id": 50, "name": "Dinamarca", "phoneCode": "+45" },
    { "id": 51, "name": "Dominica", "phoneCode": "+1767" },
    { "id": 52, "name": "Ecuador", "phoneCode": "+593" },
    { "id": 53, "name": "Egipto", "phoneCode": "+20" },
    { "id": 54, "name": "El Salvador", "phoneCode": "+503" },
    { "id": 55, "name": "Emiratos Árabes Unidos", "phoneCode": "+971" },
    { "id": 56, "name": "Eritrea", "phoneCode": "+291" },
    { "id": 57, "name": "Eslovaquia", "phoneCode": "+421" },
    { "id": 58, "name": "Eslovenia", "phoneCode": "+386" },
    { "id": 59, "name": "España", "phoneCode": "+34" },
    { "id": 60, "name": "Estados Unidos", "phoneCode": "+1" },
    { "id": 61, "name": "Estonia", "phoneCode": "+372" },
    { "id": 62, "name": "Etiopía", "phoneCode": "+251" },
    { "id": 63, "name": "Filipinas", "phoneCode": "+63" },
    { "id": 64, "name": "Finlandia", "phoneCode": "+358" },
    { "id": 65, "name": "Fiyi", "phoneCode": "+679" },
    { "id": 66, "name": "Francia", "phoneCode": "+33" },
    { "id": 67, "name": "Gabón", "phoneCode": "+241" },
    { "id": 68, "name": "Gambia", "phoneCode": "+220" },
    { "id": 69, "name": "Georgia", "phoneCode": "+995" },
    { "id": 70, "name": "Ghana", "phoneCode": "+233" },
    { "id": 71, "name": "Granada", "phoneCode": "+1473" },
    { "id": 72, "name": "Grecia", "phoneCode": "+30" },
    { "id": 73, "name": "Guatemala", "phoneCode": "+502" },
    { "id": 74, "name": "Guinea", "phoneCode": "+224" },
    { "id": 75, "name": "Guinea ecuatorial", "phoneCode": "+240" },
    { "id": 76, "name": "Guinea-Bisáu", "phoneCode": "+245" },
    { "id": 77, "name": "Guyana", "phoneCode": "+592" },
    { "id": 78, "name": "Haití", "phoneCode": "+509" },
    { "id": 79, "name": "Honduras", "phoneCode": "+504" },
    { "id": 80, "name": "Hungría", "phoneCode": "+36" },
    { "id": 81, "name": "India", "phoneCode": "+91" },
    { "id": 82, "name": "Indonesia", "phoneCode": "+62" },
    { "id": 83, "name": "Irak", "phoneCode": "+964" },
    { "id": 84, "name": "Irán", "phoneCode": "+98" },
    { "id": 85, "name": "Irlanda", "phoneCode": "+353" },
    { "id": 86, "name": "Islandia", "phoneCode": "+354" },
    { "id": 87, "name": "Islas Marshall", "phoneCode": "+692" },
    { "id": 88, "name": "Islas Salomón", "phoneCode": "+677" },
    { "id": 89, "name": "Israel", "phoneCode": "+972" },
    { "id": 90, "name": "Italia", "phoneCode": "+39" },
    { "id": 91, "name": "Jamaica", "phoneCode": "+1876" },
    { "id": 92, "name": "Japón", "phoneCode": "+81" },
    { "id": 93, "name": "Jordania", "phoneCode": "+962" },
    { "id": 94, "name": "Kazajistán", "phoneCode": "+7" },
    { "id": 95, "name": "Kenia", "phoneCode": "+254" },
    { "id": 96, "name": "Kirguistán", "phoneCode": "+996" },
    { "id": 97, "name": "Kiribati", "phoneCode": "+686" },
    { "id": 98, "name": "Kuwait", "phoneCode": "+965" },
    { "id": 99, "name": "Laos", "phoneCode": "+856" },
    { "id": 100, "name": "Lesoto", "phoneCode": "+266" },
    { "id": 101, "name": "Letonia", "phoneCode": "+371" },
    { "id": 102, "name": "Líbano", "phoneCode": "+961" },
    { "id": 103, "name": "Liberia", "phoneCode": "+231" },
    { "id": 104, "name": "Libia", "phoneCode": "+218" },
    { "id": 105, "name": "Liechtenstein", "phoneCode": "+423" },
    { "id": 106, "name": "Lituania", "phoneCode": "+370" },
    { "id": 107, "name": "Luxemburgo", "phoneCode": "+352" },
    { "id": 108, "name": "Macedonia del Norte", "phoneCode": "+389" },
    { "id": 109, "name": "Madagascar", "phoneCode": "+261" },
    { "id": 110, "name": "Malasia", "phoneCode": "+60" },
    { "id": 111, "name": "Malaui", "phoneCode": "+265" },
    { "id": 112, "name": "Maldivas", "phoneCode": "+960" },
    { "id": 113, "name": "Malí", "phoneCode": "+223" },
    { "id": 114, "name": "Malta", "phoneCode": "+356" },
    { "id": 115, "name": "Marruecos", "phoneCode": "+212" },
    { "id": 116, "name": "Mauricio", "phoneCode": "+230" },
    { "id": 117, "name": "Mauritania", "phoneCode": "+222" },
    { "id": 118, "name": "México", "phoneCode": "+52" },
    { "id": 119, "name": "Micronesia", "phoneCode": "+691" },
    { "id": 120, "name": "Moldavia", "phoneCode": "+373" },
    { "id": 121, "name": "Mónaco", "phoneCode": "+377" },
    { "id": 122, "name": "Mongolia", "phoneCode": "+976" },
    { "id": 123, "name": "Montenegro", "phoneCode": "+382" },
    { "id": 124, "name": "Mozambique", "phoneCode": "+258" },
    { "id": 125, "name": "Namibia", "phoneCode": "+264" },
    { "id": 126, "name": "Nauru", "phoneCode": "+674" },
    { "id": 127, "name": "Nepal", "phoneCode": "+977" },
    { "id": 128, "name": "Nicaragua", "phoneCode": "+505" },
    { "id": 129, "name": "Níger", "phoneCode": "+227" },
    { "id": 130, "name": "Nigeria", "phoneCode": "+234" },
    { "id": 131, "name": "Noruega", "phoneCode": "+47" },
    { "id": 132, "name": "Nueva Zelanda", "phoneCode": "+64" },
    { "id": 133, "name": "Omán", "phoneCode": "+968" },
    { "id": 134, "name": "Países Bajos", "phoneCode": "+31" },
    { "id": 135, "name": "Pakistán", "phoneCode": "+92" },
    { "id": 136, "name": "Palaos", "phoneCode": "+680" },
    { "id": 137, "name": "Panamá", "phoneCode": "+507" },
    { "id": 138, "name": "Papúa Nueva Guinea", "phoneCode": "+675" },
    { "id": 139, "name": "Paraguay", "phoneCode": "+595" },
    { "id": 140, "name": "Perú", "phoneCode": "+51" },
    { "id": 141, "name": "Polonia", "phoneCode": "+48" },
    { "id": 142, "name": "Portugal", "phoneCode": "+351" },
    { "id": 143, "name": "Reino Unido", "phoneCode": "+44" },
    { "id": 144, "name": "República Centroafricana", "phoneCode": "+236" },
    { "id": 145, "name": "República Checa", "phoneCode": "+420" },
    { "id": 146, "name": "República del Congo", "phoneCode": "+242" },
    { "id": 147, "name": "República Democrática del Congo", "phoneCode": "+243" },
    { "id": 148, "name": "República Dominicana", "phoneCode": "+1809" },
    { "id": 149, "name": "Ruanda", "phoneCode": "+250" },
    { "id": 150, "name": "Rumania", "phoneCode": "+40" },
    { "id": 151, "name": "Rusia", "phoneCode": "+7" },
    { "id": 152, "name": "Samoa", "phoneCode": "+685" },
    { "id": 153, "name": "San Cristóbal y Nieves", "phoneCode": "+1869" },
    { "id": 154, "name": "San Marino", "phoneCode": "+378" },
    { "id": 155, "name": "San Vicente y las Granadinas", "phoneCode": "+1784" },
    { "id": 156, "name": "Santa Lucía", "phoneCode": "+1758" },
    { "id": 157, "name": "Santo Tomé y Príncipe", "phoneCode": "+239" },
    { "id": 158, "name": "Senegal", "phoneCode": "+221" },
    { "id": 159, "name": "Serbia", "phoneCode": "+381" },
    { "id": 160, "name": "Seychelles", "phoneCode": "+248" },
    { "id": 161, "name": "Sierra Leona", "phoneCode": "+232" },
    { "id": 162, "name": "Singapur", "phoneCode": "+65" },
    { "id": 163, "name": "Siria", "phoneCode": "+963" },
    { "id": 164, "name": "Somalia", "phoneCode": "+252" },
    { "id": 165, "name": "Sri Lanka", "phoneCode": "+94" },
    { "id": 166, "name": "Suazilandia", "phoneCode": "+268" },
    { "id": 167, "name": "Sudáfrica", "phoneCode": "+27" },
    { "id": 168, "name": "Sudán", "phoneCode": "+249" },
    { "id": 169, "name": "Sudán del Sur", "phoneCode": "+211" },
    { "id": 170, "name": "Suecia", "phoneCode": "+46" },
    { "id": 171, "name": "Suiza", "phoneCode": "+41" },
    { "id": 172, "name": "Surinam", "phoneCode": "+597" },
    { "id": 173, "name": "Tailandia", "phoneCode": "+66" },
    { "id": 174, "name": "Tanzania", "phoneCode": "+255" },
    { "id": 175, "name": "Tayikistán", "phoneCode": "+992" },
    { "id": 176, "name": "Timor Oriental", "phoneCode": "+670" },
    { "id": 177, "name": "Togo", "phoneCode": "+228" },
    { "id": 178, "name": "Tonga", "phoneCode": "+676" },
    { "id": 179, "name": "Trinidad y Tobago", "phoneCode": "+1868" },
    { "id": 180, "name": "Túnez", "phoneCode": "+216" },
    { "id": 181, "name": "Turkmenistán", "phoneCode": "+993" },
    { "id": 182, "name": "Turquía", "phoneCode": "+90" },
    { "id": 183, "name": "Tuvalu", "phoneCode": "+688" },
    { "id": 184, "name": "Ucrania", "phoneCode": "+380" },
    { "id": 185, "name": "Uganda", "phoneCode": "+256" },
    { "id": 186, "name": "Uruguay", "phoneCode": "+598" },
    { "id": 187, "name": "Uzbekistán", "phoneCode": "+998" },
    { "id": 188, "name": "Vanuatu", "phoneCode": "+678" },
    { "id": 189, "name": "Venezuela", "phoneCode": "+58" },
    { "id": 190, "name": "Vietnam", "phoneCode": "+84" },
    { "id": 191, "name": "Yemen", "phoneCode": "+967" },
    { "id": 192, "name": "Yibuti", "phoneCode": "+253" },
    { "id": 193, "name": "Zambia", "phoneCode": "+260" },
    { "id": 194, "name": "Zimbabue", "phoneCode": "+263" }
  ]
}
